[
  {
    "name": "ONEWEB-0211",
    "noradId": "48767",
    "line1": "1 48767U 21045A   26181.95054380  .00000070  00000+0  14994-3 0  9992",
    "line2": "2 48767  87.9001 256.3373 0002368 115.3411 244.7965 13.16196428246250"
  },
  {
    "name": "ONEWEB-0223",
    "noradId": "48768",
    "line1": "1 48768U 21045B   26181.65541302  .00000003  00000+0 -25590-4 0  9997",
    "line2": "2 48768  87.9007 256.5080 0001988 111.9720 248.1622 13.15549113246177"
  },
  {
    "name": "ONEWEB-0230",
    "noradId": "48769",
    "line1": "1 48769U 21045C   26181.93112195 -.00000237  00000+0 -66407-3 0  9994",
    "line2": "2 48769  87.8995 256.4657 0001941  95.0513 265.0839 13.15548088246474"
  },
  {
    "name": "ONEWEB-0237",
    "noradId": "48770",
    "line1": "1 48770U 21045D   26181.92002532 -.00000115  00000+0 -34005-3 0  9992",
    "line2": "2 48770  87.8995 256.4696 0002365 102.8012 257.3382 13.15546704246190"
  },
  {
    "name": "ONEWEB-0235",
    "noradId": "48771",
    "line1": "1 48771U 21045E   26181.21016225  .00000179  00000+0  44080-3 0  9991",
    "line2": "2 48771  87.9006 256.5977 0001908 111.3723 248.7611 13.15549829246093"
  },
  {
    "name": "ONEWEB-0242",
    "noradId": "48772",
    "line1": "1 48772U 21045F   26181.96439936  .00000166  00000+0  40690-3 0  9991",
    "line2": "2 48772  87.9006 256.4448 0001844 102.2758 257.8579 13.15547365246235"
  },
  {
    "name": "ONEWEB-0241",
    "noradId": "48773",
    "line1": "1 48773U 21045G   26181.95171684  .00000094  00000+0  21524-3 0  9999",
    "line2": "2 48773  87.8993 256.4641 0002183 110.8851 249.2513 13.15549189246140"
  },
  {
    "name": "ONEWEB-0243",
    "noradId": "48774",
    "line1": "1 48774U 21045H   26181.60313774 -.00000942  00000+0 -25381-2 0  9998",
    "line2": "2 48774  87.8995 256.5453 0001520 103.6101 256.5199 13.15539082246127"
  },
  {
    "name": "ONEWEB-0222",
    "noradId": "48775",
    "line1": "1 48775U 21045J   26181.66253398  .00000181  00000+0  44646-3 0  9999",
    "line2": "2 48775  87.9004 256.5026 0002034 106.3303 253.8051 13.15549910246174"
  },
  {
    "name": "ONEWEB-0244",
    "noradId": "48776",
    "line1": "1 48776U 21045K   26181.23234160 -.00000051  00000+0 -17018-3 0  9990",
    "line2": "2 48776  87.9012 256.5838 0001927 103.0345 257.1000 13.15549615246684"
  },
  {
    "name": "ONEWEB-0247",
    "noradId": "48777",
    "line1": "1 48777U 21045L   26181.91369466  .00000001  00000+0 -32387-4 0  9995",
    "line2": "2 48777  87.8997 256.4783 0001521 121.7570 238.3709 13.15548048246216"
  },
  {
    "name": "ONEWEB-0245",
    "noradId": "48778",
    "line1": "1 48778U 21045M   26181.60470661  .00000007  00000+0 -15742-4 0  9994",
    "line2": "2 48778  87.9004 256.5201 0002106 103.8797 256.2568 13.15548912246149"
  },
  {
    "name": "ONEWEB-0229",
    "noradId": "48779",
    "line1": "1 48779U 21045N   26181.59994940 -.00000065  00000+0 -20739-3 0  9990",
    "line2": "2 48779  87.9009 256.5190 0001876 100.4989 259.6352 13.15548818246177"
  },
  {
    "name": "ONEWEB-0228",
    "noradId": "48780",
    "line1": "1 48780U 21045P   26181.93759909 -.00000077  00000+0 -23941-3 0  9995",
    "line2": "2 48780  87.9010 256.4454 0001990 102.2570 257.8783 13.15547733246135"
  },
  {
    "name": "ONEWEB-0232",
    "noradId": "48781",
    "line1": "1 48781U 21045Q   26181.91210646  .00000028  00000+0  40430-4 0  9991",
    "line2": "2 48781  87.9010 256.4508 0002106  99.9425 260.1943 13.15547567246452"
  },
  {
    "name": "ONEWEB-0231",
    "noradId": "48782",
    "line1": "1 48782U 21045R   26181.66174363  .00000180  00000+0  44412-3 0  9991",
    "line2": "2 48782  87.9004 256.5132 0001966 106.5971 253.5376 13.15549562246110"
  },
  {
    "name": "ONEWEB-0234",
    "noradId": "48783",
    "line1": "1 48783U 21045S   26181.92780784 -.00000290  00000+0 -80521-3 0  9996",
    "line2": "2 48783  87.9004 256.4423 0002853  98.7428 261.4026 13.15548167246286"
  },
  {
    "name": "ONEWEB-0238",
    "noradId": "48784",
    "line1": "1 48784U 21045T   26181.92809122 -.00000153  00000+0 -43969-3 0  9998",
    "line2": "2 48784  87.9011 256.4377 0002456  99.2882 260.8526 13.15547303246180"
  },
  {
    "name": "ONEWEB-0240",
    "noradId": "48785",
    "line1": "1 48785U 21045U   26181.94934507 -.00000041  00000+0 -14189-3 0  9995",
    "line2": "2 48785  87.9007 256.4431 0002161 108.1452 251.9913 13.15547827246219"
  },
  {
    "name": "ONEWEB-0246",
    "noradId": "48786",
    "line1": "1 48786U 21045V   26181.94379102 -.00000220  00000+0 -61718-3 0  9999",
    "line2": "2 48786  87.9006 256.4485 0001900 100.5276 259.6069 13.15547845246080"
  },
  {
    "name": "ONEWEB-0210",
    "noradId": "48787",
    "line1": "1 48787U 21045W   26181.91843880 -.00000122  00000+0 -35804-3 0  9994",
    "line2": "2 48787  87.9008 256.4505 0001267 115.5049 244.6212 13.15547610246125"
  },
  {
    "name": "ONEWEB-0214",
    "noradId": "48788",
    "line1": "1 48788U 21045X   26181.92714552 -.00000120  00000+0 -35179-3 0  9992",
    "line2": "2 48788  87.9005 256.4458 0001687  95.2927 264.8396 13.15549692246090"
  },
  {
    "name": "ONEWEB-0221",
    "noradId": "48789",
    "line1": "1 48789U 21045Y   26181.93429103 -.00000215  00000+0 -60458-3 0  9992",
    "line2": "2 48789  87.9005 256.4530 0001954 105.7462 254.3884 13.15547908246184"
  },
  {
    "name": "ONEWEB-0213",
    "noradId": "48790",
    "line1": "1 48790U 21045Z   26181.92319963 -.00000100  00000+0 -30084-3 0  9990",
    "line2": "2 48790  87.9005 256.4580 0001868 106.8473 253.2863 13.15548083246246"
  },
  {
    "name": "ONEWEB-0212",
    "noradId": "48791",
    "line1": "1 48791U 21045AA  26181.67202745 -.00000233  00000+0 -65320-3 0  9990",
    "line2": "2 48791  87.9006 256.5022 0002035  99.0642 261.0718 13.15548710246207"
  },
  {
    "name": "ONEWEB-0227",
    "noradId": "48792",
    "line1": "1 48792U 21045AB  26181.67125407 -.00000055  00000+0 -17918-3 0  9992",
    "line2": "2 48792  87.9003 256.5029 0001998 101.8702 258.2652 13.15548797246152"
  },
  {
    "name": "ONEWEB-0226",
    "noradId": "48793",
    "line1": "1 48793U 21045AC  26181.66491144  .00000146  00000+0  35338-3 0  9991",
    "line2": "2 48793  87.9001 256.5087 0001772 103.6862 256.4466 13.15547518246122"
  },
  {
    "name": "ONEWEB-0224",
    "noradId": "48794",
    "line1": "1 48794U 21045AD  26181.93270939 -.00000160  00000+0 -45990-3 0  9992",
    "line2": "2 48794  87.8997 256.4890 0002819 110.9218 249.2215 13.15547587246089"
  },
  {
    "name": "ONEWEB-0233",
    "noradId": "48795",
    "line1": "1 48795U 21045AE  26181.93731915 -.00000185  00000+0 -52585-3 0  9994",
    "line2": "2 48795  87.8995 256.4955 0002034 108.7972 251.3379 13.15548361246100"
  },
  {
    "name": "ONEWEB-0190",
    "noradId": "48796",
    "line1": "1 48796U 21045AF  26181.92478296 -.00000106  00000+0 -31431-3 0  9994",
    "line2": "2 48796  87.9001 256.4606 0001782 119.4899 240.6409 13.15547802246170"
  }
]