OBJECT_NAME,OBJECT_ID,EPOCH,MEAN_MOTION,ECCENTRICITY,INCLINATION,RA_OF_ASC_NODE,ARG_OF_PERICENTER,MEAN_ANOMALY,EPHEMERIS_TYPE,CLASSIFICATION_TYPE,NORAD_CAT_ID,ELEMENT_SET_NO,REV_AT_EPOCH,BSTAR,MEAN_MOTION_DOT,MEAN_MOTION_DDOT
ONEWEB-0211,2021-045A,2026-06-30T22:48:46.984320,13.16196428,.00023689,87.9001,256.3373,115.3411,244.7965,0,U,48767,999,24625,.14994165E-3,.7E-6,0
ONEWEB-0223,2021-045B,2026-06-30T15:43:47.684928,13.15549113,.00019884,87.9007,256.5080,111.9720,248.1622,0,U,48768,999,24617,-.25590254E-4,.3E-7,0
ONEWEB-0230,2021-045C,2026-06-30T22:20:48.936480,13.15548088,.00019419,87.8995,256.4657,95.0513,265.0839,0,U,48769,999,24647,-.66406552E-3,-.237E-5,0
ONEWEB-0237,2021-045D,2026-06-30T22:04:50.187648,13.15546704,.00023654,87.8995,256.4696,102.8012,257.3382,0,U,48770,999,24619,-.34004725E-3,-.115E-5,0
ONEWEB-0235,2021-045E,2026-06-30T05:02:38.018400,13.15549829,.00019082,87.9006,256.5977,111.3723,248.7611,0,U,48771,999,24609,.44079763E-3,.179E-5,0
ONEWEB-0242,2021-045F,2026-06-30T23:08:44.104704,13.15547365,.00018444,87.9006,256.4448,102.2758,257.8579,0,U,48772,999,24623,.40689857E-3,.166E-5,0
ONEWEB-0241,2021-045G,2026-06-30T22:50:28.334976,13.15549189,.00021835,87.8993,256.4641,110.8851,249.2513,0,U,48773,999,24614,.21523932E-3,.94E-6,0
ONEWEB-0243,2021-045H,2026-06-30T14:28:31.100736,13.15539082,.00015205,87.8995,256.5453,103.6101,256.5199,0,U,48774,999,24612,-.25380648E-2,-.942E-5,0
ONEWEB-0222,2021-045J,2026-06-30T15:54:02.935872,13.15549910,.0002034,87.9004,256.5026,106.3303,253.8051,0,U,48775,999,24617,.44646196E-3,.181E-5,0
ONEWEB-0244,2021-045K,2026-06-30T05:34:34.314240,13.15549615,.00019272,87.9012,256.5838,103.0345,257.1000,0,U,48776,999,24668,-.17017549E-3,-.51E-6,0
ONEWEB-0247,2021-045L,2026-06-30T21:55:43.218624,13.15548048,.0001521,87.8997,256.4783,121.7570,238.3709,0,U,48777,999,24621,-.32387176E-4,.1E-7,0
ONEWEB-0245,2021-045M,2026-06-30T14:30:46.651104,13.15548912,.00021068,87.9004,256.5201,103.8797,256.2568,0,U,48778,999,24614,-.15741781E-4,.7E-7,0
ONEWEB-0229,2021-045N,2026-06-30T14:23:55.628160,13.15548818,.00018769,87.9009,256.5190,100.4989,259.6352,0,U,48779,999,24617,-.20739477E-3,-.65E-6,0
ONEWEB-0228,2021-045P,2026-06-30T22:30:08.561376,13.15547733,.00019908,87.9010,256.4454,102.2570,257.8783,0,U,48780,999,24613,-.23941238E-3,-.77E-6,0
ONEWEB-0232,2021-045Q,2026-06-30T21:53:25.998144,13.15547567,.0002106,87.9010,256.4508,99.9425,260.1943,0,U,48781,999,24645,.40430437E-4,.28E-6,0
ONEWEB-0231,2021-045R,2026-06-30T15:52:54.649632,13.15549562,.00019661,87.9004,256.5132,106.5971,253.5376,0,U,48782,999,24611,.44412307E-3,.18E-5,0
ONEWEB-0234,2021-045S,2026-06-30T22:16:02.597376,13.15548167,.00028538,87.9004,256.4423,98.7428,261.4026,0,U,48783,999,24628,-.8052103E-3,-.29E-5,0
ONEWEB-0238,2021-045T,2026-06-30T22:16:27.081408,13.15547303,.00024561,87.9011,256.4377,99.2882,260.8526,0,U,48784,999,24618,-.43969466E-3,-.153E-5,0
ONEWEB-0240,2021-045U,2026-06-30T22:47:03.414048,13.15547827,.00021611,87.9007,256.4431,108.1452,251.9913,0,U,48785,999,24621,-.14188884E-3,-.41E-6,0
ONEWEB-0246,2021-045V,2026-06-30T22:39:03.544128,13.15547845,.00019007,87.9006,256.4485,100.5276,259.6069,0,U,48786,999,24608,-.61717734E-3,-.22E-5,0
ONEWEB-0210,2021-045W,2026-06-30T22:02:33.112320,13.15547610,.00012674,87.9008,256.4505,115.5049,244.6212,0,U,48787,999,24612,-.35804416E-3,-.122E-5,0
ONEWEB-0214,2021-045X,2026-06-30T22:15:05.372928,13.15549692,.00016878,87.9005,256.4458,95.2927,264.8396,0,U,48788,999,24609,-.35178827E-3,-.12E-5,0
ONEWEB-0221,2021-045Y,2026-06-30T22:25:22.744992,13.15547908,.00019545,87.9005,256.4530,105.7462,254.3884,0,U,48789,999,24618,-.60457545E-3,-.215E-5,0
ONEWEB-0213,2021-045Z,2026-06-30T22:09:24.448032,13.15548083,.00018686,87.9005,256.4580,106.8473,253.2863,0,U,48790,999,24624,-.30084126E-3,-.1E-5,0
ONEWEB-0212,2021-045AA,2026-06-30T16:07:43.171680,13.15548710,.00020354,87.9006,256.5022,99.0642,261.0718,0,U,48791,999,24620,-.65320134E-3,-.233E-5,0
ONEWEB-0227,2021-045AB,2026-06-30T16:06:36.351648,13.15548797,.00019985,87.9003,256.5029,101.8702,258.2652,0,U,48792,999,24615,-.17918218E-3,-.55E-6,0
ONEWEB-0226,2021-045AC,2026-06-30T15:57:28.348416,13.15547518,.0001772,87.9001,256.5087,103.6862,256.4466,0,U,48793,999,24612,.35337908E-3,.146E-5,0
ONEWEB-0224,2021-045AD,2026-06-30T22:23:06.091296,13.15547587,.00028199,87.8997,256.4890,110.9218,249.2215,0,U,48794,999,24608,-.45990035E-3,-.16E-5,0
ONEWEB-0233,2021-045AE,2026-06-30T22:29:44.374560,13.15548361,.00020347,87.8995,256.4955,108.7972,251.3379,0,U,48795,999,24610,-.52584865E-3,-.185E-5,0
ONEWEB-0190,2021-045AF,2026-06-30T22:11:41.247744,13.15547802,.00017828,87.9001,256.4606,119.4899,240.6409,0,U,48796,999,24617,-.3143134E-3,-.106E-5,0
